[{"OBJECT_NAME":"GEOSCAN 4 (RS92S4)","OBJECT_ID":"2025-155S","EPOCH":"2026-03-09T21:50:07.724832","MEAN_MOTION":15.30369837,"ECCENTRICITY":0.00070968,"INCLINATION":97.4465,"RA_OF_ASC_NODE":37.7626,"ARG_OF_PERICENTER":154.7045,"MEAN_ANOMALY":205.4544,"EPHEMERIS_TYPE":0,"CLASSIFICATION_TYPE":"U","NORAD_CAT_ID":64892,"ELEMENT_SET_NO":999,"REV_AT_EPOCH":6562,"BSTAR":0.00068609503,"MEAN_MOTION_DOT":0.00020121,"MEAN_MOTION_DDOT":0},{"OBJECT_NAME":"STARLINK-35022","OBJECT_ID":"2025-192F","EPOCH":"2026-03-09T17:55:17.144544","MEAN_MOTION":15.31027796,"ECCENTRICITY":8.084e-5,"INCLINATION":53.1589,"RA_OF_ASC_NODE":232.0428,"ARG_OF_PERICENTER":37.8679,"MEAN_ANOMALY":322.2379,"EPHEMERIS_TYPE":0,"CLASSIFICATION_TYPE":"U","NORAD_CAT_ID":65409,"ELEMENT_SET_NO":999,"REV_AT_EPOCH":2939,"BSTAR":0.0011137648,"MEAN_MOTION_DOT":0.00033635,"MEAN_MOTION_DDOT":0}]
